SL-14 R/B               
1 21423U 91042B   26003.18885100  .00000857  00000+0  10545-3 0  9997
2 21423  82.4937 281.6119 0018571  95.7018 264.6314 14.81763571843371
ERS-1                   
1 21574U 91050A   26003.63393796  .00000653  00000+0  22362-3 0  9992
2 21574  98.7896  20.2358 0032591  36.8063 323.5352 14.39386329806379
ARIANE 40 R/B           
1 21610U 91050F   26003.63143454  .00000656  00000+0  20916-3 0  9993
2 21610  98.2133  58.2688 0002000 270.3766  89.7195 14.42835329809612
INTERCOSMOS 25          
1 21819U 91086A   26003.43156942  .00002334  00000+0  46498-3 0  9995
2 21819  82.6078 349.4536 1485956 257.6099  85.5261 12.11820532488781
SL-8 R/B                
1 21876U 92008B   26003.43392407  .00000150  00000+0  13923-3 0  9992
2 21876  82.9281 316.3108 0033904 318.8349 162.0257 13.75964306700445
SL-8 R/B                
1 21938U 92020B   26003.66488066  .00000221  00000+0  21293-3 0  9995
2 21938  82.9291 202.0358 0030066 118.2462 311.8741 13.75534160692192
USA 81                  
1 21949U 92023A   26003.55076123  .00000369  00000+0  12930-3 0  9996
2 21949  85.0091 168.9970 0001177 110.0257 250.1062 14.32337549 85462
COSMOS 2219             
1 22219U 92076A   26003.58301600  .00000373  00000+0  22038-3 0  9994
2 22219  71.0604 154.1711 0020089 296.6045  63.3019 14.14076923709170
SL-16 R/B               
1 22220U 92076B   26003.62518649 -.00000080  00000+0 -15772-4 0  9999
2 22220  71.0011 325.4298 0013731 204.3024 328.2464 14.16845451712618
COSMOS 2221             
1 22236U 92080A   26003.42503182  .00004366  00000+0  38740-3 0  9993
2 22236  82.5047 341.5667 0015989  55.9858 304.2880 14.95874294771033
SL-16 R/B               
1 22285U 92093B   26003.65205178 -.00000121  00000+0 -37608-4 0  9990
2 22285  71.0211 140.7980 0003055  10.6855 349.4333 14.15434328703958
COSMOS 2228             
1 22286U 92094A   26003.61770096  .00004406  00000+0  38089-3 0  9995
2 22286  82.5197 299.6010 0018504 155.5682 204.6422 14.96855879766327
