CCSDS_OMM_VERS = 2.0
CREATION_DATE  = 
ORIGINATOR     = 

OBJECT_NAME    = SL-14 R/B
OBJECT_ID      = 1991-042B
CENTER_NAME    = EARTH
REF_FRAME      = TEME
TIME_SYSTEM    = UTC
MEAN_ELEMENT_THEORY = SGP/SGP4

EPOCH          = 2026-01-03T04:31:56.726400
MEAN_MOTION    = 14.81763571
ECCENTRICITY   = .0018571
INCLINATION    = 82.4937
RA_OF_ASC_NODE = 281.6119
ARG_OF_PERICENTER = 95.7018
MEAN_ANOMALY   = 264.6314

EPHEMERIS_TYPE = 0
CLASSIFICATION_TYPE = U
NORAD_CAT_ID   = 21423
ELEMENT_SET_NO = 999
REV_AT_EPOCH   = 84337
BSTAR          = .10545E-3
MEAN_MOTION_DOT = .857E-5
MEAN_MOTION_DDOT = 0

CCSDS_OMM_VERS = 2.0
CREATION_DATE  = 
ORIGINATOR     = 

OBJECT_NAME    = ERS-1
OBJECT_ID      = 1991-050A
CENTER_NAME    = EARTH
REF_FRAME      = TEME
TIME_SYSTEM    = UTC
MEAN_ELEMENT_THEORY = SGP/SGP4

EPOCH          = 2026-01-03T15:12:52.239744
MEAN_MOTION    = 14.39386329
ECCENTRICITY   = .00325918
INCLINATION    = 98.7896
RA_OF_ASC_NODE = 20.2358
ARG_OF_PERICENTER = 36.8063
MEAN_ANOMALY   = 323.5352

EPHEMERIS_TYPE = 0
CLASSIFICATION_TYPE = U
NORAD_CAT_ID   = 21574
ELEMENT_SET_NO = 999
REV_AT_EPOCH   = 80637
BSTAR          = .22362015E-3
MEAN_MOTION_DOT = .653E-5
MEAN_MOTION_DDOT = 0

CCSDS_OMM_VERS = 2.0
CREATION_DATE  = 
ORIGINATOR     = 

OBJECT_NAME    = ARIANE 40 R/B
OBJECT_ID      = 1991-050F
CENTER_NAME    = EARTH
REF_FRAME      = TEME
TIME_SYSTEM    = UTC
MEAN_ELEMENT_THEORY = SGP/SGP4

EPOCH          = 2026-01-03T15:09:15.944256
MEAN_MOTION    = 14.42835329
ECCENTRICITY   = .00020007
INCLINATION    = 98.2133
RA_OF_ASC_NODE = 58.2688
ARG_OF_PERICENTER = 270.3766
MEAN_ANOMALY   = 89.7195

EPHEMERIS_TYPE = 0
CLASSIFICATION_TYPE = U
NORAD_CAT_ID   = 21610
ELEMENT_SET_NO = 999
REV_AT_EPOCH   = 80961
BSTAR          = .2091637E-3
MEAN_MOTION_DOT = .656E-5
MEAN_MOTION_DDOT = 0

CCSDS_OMM_VERS = 2.0
CREATION_DATE  = 
ORIGINATOR     = 

OBJECT_NAME    = INTERCOSMOS 25
OBJECT_ID      = 1991-086A
CENTER_NAME    = EARTH
REF_FRAME      = TEME
TIME_SYSTEM    = UTC
MEAN_ELEMENT_THEORY = SGP/SGP4

EPOCH          = 2026-01-03T10:21:27.597888
MEAN_MOTION    = 12.11820532
ECCENTRICITY   = .14859568
INCLINATION    = 82.6078
RA_OF_ASC_NODE = 349.4536
ARG_OF_PERICENTER = 257.6099
MEAN_ANOMALY   = 85.5261

EPHEMERIS_TYPE = 0
CLASSIFICATION_TYPE = U
NORAD_CAT_ID   = 21819
ELEMENT_SET_NO = 999
REV_AT_EPOCH   = 48878
BSTAR          = .46497516E-3
MEAN_MOTION_DOT = .2334E-4
MEAN_MOTION_DDOT = 0

CCSDS_OMM_VERS = 2.0
CREATION_DATE  = 
ORIGINATOR     = 

OBJECT_NAME    = SL-8 R/B
OBJECT_ID      = 1992-008B
CENTER_NAME    = EARTH
REF_FRAME      = TEME
TIME_SYSTEM    = UTC
MEAN_ELEMENT_THEORY = SGP/SGP4

EPOCH          = 2026-01-03T10:24:51.039648
MEAN_MOTION    = 13.75964306
ECCENTRICITY   = .0033904
INCLINATION    = 82.9281
RA_OF_ASC_NODE = 316.3108
ARG_OF_PERICENTER = 318.8349
MEAN_ANOMALY   = 162.0257

EPHEMERIS_TYPE = 0
CLASSIFICATION_TYPE = U
NORAD_CAT_ID   = 21876
ELEMENT_SET_NO = 999
REV_AT_EPOCH   = 70044
BSTAR          = .13923146E-3
MEAN_MOTION_DOT = .15E-5
MEAN_MOTION_DDOT = 0

CCSDS_OMM_VERS = 2.0
CREATION_DATE  = 
ORIGINATOR     = 

OBJECT_NAME    = SL-8 R/B
OBJECT_ID      = 1992-020B
CENTER_NAME    = EARTH
REF_FRAME      = TEME
TIME_SYSTEM    = UTC
MEAN_ELEMENT_THEORY = SGP/SGP4

EPOCH          = 2026-01-03T15:57:25.689024
MEAN_MOTION    = 13.75534160
ECCENTRICITY   = .00300669
INCLINATION    = 82.9291
RA_OF_ASC_NODE = 202.0358
ARG_OF_PERICENTER = 118.2462
MEAN_ANOMALY   = 311.8741

EPHEMERIS_TYPE = 0
CLASSIFICATION_TYPE = U
NORAD_CAT_ID   = 21938
ELEMENT_SET_NO = 999
REV_AT_EPOCH   = 69219
BSTAR          = .21293179E-3
MEAN_MOTION_DOT = .221E-5
MEAN_MOTION_DDOT = 0

CCSDS_OMM_VERS = 2.0
CREATION_DATE  = 
ORIGINATOR     = 

OBJECT_NAME    = USA 81
OBJECT_ID      = 1992-023A
CENTER_NAME    = EARTH
REF_FRAME      = TEME
TIME_SYSTEM    = UTC
MEAN_ELEMENT_THEORY = SGP/SGP4

EPOCH          = 2026-01-03T13:13:05.770272
MEAN_MOTION    = 14.32337549
ECCENTRICITY   = .00011773
INCLINATION    = 85.0091
RA_OF_ASC_NODE = 168.9970
ARG_OF_PERICENTER = 110.0257
MEAN_ANOMALY   = 250.1062

EPHEMERIS_TYPE = 0
CLASSIFICATION_TYPE = U
NORAD_CAT_ID   = 21949
ELEMENT_SET_NO = 999
REV_AT_EPOCH   = 8546
BSTAR          = .12930245E-3
MEAN_MOTION_DOT = .369E-5
MEAN_MOTION_DDOT = 0

CCSDS_OMM_VERS = 2.0
CREATION_DATE  = 
ORIGINATOR     = 

OBJECT_NAME    = COSMOS 2219
OBJECT_ID      = 1992-076A
CENTER_NAME    = EARTH
REF_FRAME      = TEME
TIME_SYSTEM    = UTC
MEAN_ELEMENT_THEORY = SGP/SGP4

EPOCH          = 2026-01-03T13:59:32.582400
MEAN_MOTION    = 14.14076923
ECCENTRICITY   = .00200892
INCLINATION    = 71.0604
RA_OF_ASC_NODE = 154.1711
ARG_OF_PERICENTER = 296.6045
MEAN_ANOMALY   = 63.3019

EPHEMERIS_TYPE = 0
CLASSIFICATION_TYPE = U
NORAD_CAT_ID   = 22219
ELEMENT_SET_NO = 999
REV_AT_EPOCH   = 70917
BSTAR          = .22037759E-3
MEAN_MOTION_DOT = .373E-5
MEAN_MOTION_DDOT = 0

CCSDS_OMM_VERS = 2.0
CREATION_DATE  = 
ORIGINATOR     = 

OBJECT_NAME    = SL-16 R/B
OBJECT_ID      = 1992-076B
CENTER_NAME    = EARTH
REF_FRAME      = TEME
TIME_SYSTEM    = UTC
MEAN_ELEMENT_THEORY = SGP/SGP4

EPOCH          = 2026-01-03T15:00:16.112736
MEAN_MOTION    = 14.16845451
ECCENTRICITY   = .00137314
INCLINATION    = 71.0011
RA_OF_ASC_NODE = 325.4298
ARG_OF_PERICENTER = 204.3024
MEAN_ANOMALY   = 328.2464

EPHEMERIS_TYPE = 0
CLASSIFICATION_TYPE = U
NORAD_CAT_ID   = 22220
ELEMENT_SET_NO = 999
REV_AT_EPOCH   = 71261
BSTAR          = -.15771519E-4
MEAN_MOTION_DOT = -.8E-6
MEAN_MOTION_DDOT = 0

CCSDS_OMM_VERS = 2.0
CREATION_DATE  = 
ORIGINATOR     = 

OBJECT_NAME    = COSMOS 2221
OBJECT_ID      = 1992-080A
CENTER_NAME    = EARTH
REF_FRAME      = TEME
TIME_SYSTEM    = UTC
MEAN_ELEMENT_THEORY = SGP/SGP4

EPOCH          = 2026-01-03T10:12:02.749248
MEAN_MOTION    = 14.95874294
ECCENTRICITY   = .00159894
INCLINATION    = 82.5047
RA_OF_ASC_NODE = 341.5667
ARG_OF_PERICENTER = 55.9858
MEAN_ANOMALY   = 304.2880

EPHEMERIS_TYPE = 0
CLASSIFICATION_TYPE = U
NORAD_CAT_ID   = 22236
ELEMENT_SET_NO = 999
REV_AT_EPOCH   = 77103
BSTAR          = .3874008E-3
MEAN_MOTION_DOT = .4366E-4
MEAN_MOTION_DDOT = 0

CCSDS_OMM_VERS = 2.0
CREATION_DATE  = 
ORIGINATOR     = 

OBJECT_NAME    = SL-16 R/B
OBJECT_ID      = 1992-093B
CENTER_NAME    = EARTH
REF_FRAME      = TEME
TIME_SYSTEM    = UTC
MEAN_ELEMENT_THEORY = SGP/SGP4

EPOCH          = 2026-01-03T15:38:57.273792
MEAN_MOTION    = 14.15434328
ECCENTRICITY   = .00030553
INCLINATION    = 71.0211
RA_OF_ASC_NODE = 140.7980
ARG_OF_PERICENTER = 10.6855
MEAN_ANOMALY   = 349.4333

EPHEMERIS_TYPE = 0
CLASSIFICATION_TYPE = U
NORAD_CAT_ID   = 22285
ELEMENT_SET_NO = 999
REV_AT_EPOCH   = 70395
BSTAR          = -.37607687E-4
MEAN_MOTION_DOT = -.121E-5
MEAN_MOTION_DDOT = 0

CCSDS_OMM_VERS = 2.0
CREATION_DATE  = 
ORIGINATOR     = 

OBJECT_NAME    = COSMOS 2228
OBJECT_ID      = 1992-094A
CENTER_NAME    = EARTH
REF_FRAME      = TEME
TIME_SYSTEM    = UTC
MEAN_ELEMENT_THEORY = SGP/SGP4

EPOCH          = 2026-01-03T14:49:29.362944
MEAN_MOTION    = 14.96855879
ECCENTRICITY   = .00185046
INCLINATION    = 82.5197
RA_OF_ASC_NODE = 299.6010
ARG_OF_PERICENTER = 155.5682
MEAN_ANOMALY   = 204.6422

EPHEMERIS_TYPE = 0
CLASSIFICATION_TYPE = U
NORAD_CAT_ID   = 22286
ELEMENT_SET_NO = 999
REV_AT_EPOCH   = 76632
BSTAR          = .38088681E-3
MEAN_MOTION_DOT = .4406E-4
MEAN_MOTION_DDOT = 0

